{"type": "FeatureCollection", "features": [ {"type": "Feature", "properties": {"norad_id": 65304, "name": "DRAGON CRS-33", "group": "stations", "lat": -30.37048643046479, "lon": 93.79671929098991, "alt_km": 420.4664355256946, "timestamp": "2025-12-16T23:36:34.944168+00:00", "meta": {"OBJECT_NAME": "DRAGON CRS-33", "OBJECT_ID": "2025-186A", "EPOCH": "2025-12-16T02:06:50.626944", "MEAN_MOTION": 15.49613604, "ECCENTRICITY": 0.00031739, "INCLINATION": 51.6306, "RA_OF_ASC_NODE": 125.8981, "ARG_OF_PERICENTER": 255.6781, "MEAN_ANOMALY": 104.3856, "EPHEMERIS_TYPE": 0, "CLASSIFICATION_TYPE": "U", "NORAD_CAT_ID": 65304, "ELEMENT_SET_NO": 999, "REV_AT_EPOCH": 11, "BSTAR": 0.00012170727, "MEAN_MOTION_DOT": 6.404e-05, "MEAN_MOTION_DDOT": 0}, "tle": {"line1": "1 65304U 25186A   25350.08808596  .00006404  00000+0  12171-3 0  9997", "line2": "2 65304  51.6306 125.8981 0003173 255.6781 104.3856 15.49613604   111"}}, "geometry": {"type": "Point", "coordinates": [93.79671929098991, -30.37048643046479]}}, {"type": "Feature", "properties": {"norad_id": 65586, "name": "PROGRESS-MS 32", "group": "stations", "lat": -30.37048593746438, "lon": 93.79671988281441, "alt_km": 420.46643551778834, "timestamp": "2025-12-16T23:36:34.944179+00:00", "meta": {"OBJECT_NAME": "PROGRESS-MS 32", "OBJECT_ID": "2025-204A", "EPOCH": "2025-12-16T02:06:50.626944", "MEAN_MOTION": 15.49613604, "ECCENTRICITY": 0.00031739, "INCLINATION": 51.6306, "RA_OF_ASC_NODE": 125.8981, "ARG_OF_PERICENTER": 255.6781, "MEAN_ANOMALY": 104.3856, "EPHEMERIS_TYPE": 0, "CLASSIFICATION_TYPE": "U", "NORAD_CAT_ID": 65586, "ELEMENT_SET_NO": 999, "REV_AT_EPOCH": 27, "BSTAR": 0.00012170727, "MEAN_MOTION_DOT": 6.404e-05, "MEAN_MOTION_DDOT": 0}, "tle": {"line1": "1 65586U 25204A   25350.08808596  .00006404  00000+0  12171-3 0  9990", "line2": "2 65586  51.6306 125.8981 0003173 255.6781 104.3856 15.49613604   270"}}, "geometry": {"type": "Point", "coordinates": [93.79671988281441, -30.37048593746438]}}, {"type": "Feature", "properties": {"norad_id": 65616, "name": "CYGNUS NG-23", "group": "stations", "lat": -30.370485444464016, "lon": 93.79672047463889, "alt_km": 420.4664355098803, "timestamp": "2025-12-16T23:36:34.944190+00:00", "meta": {"OBJECT_NAME": "CYGNUS NG-23", "OBJECT_ID": "2025-208A", "EPOCH": "2025-12-16T02:06:50.626944", "MEAN_MOTION": 15.49613604, "ECCENTRICITY": 0.00031739, "INCLINATION": 51.6306, "RA_OF_ASC_NODE": 125.8981, "ARG_OF_PERICENTER": 255.6781, "MEAN_ANOMALY": 104.3856, "EPHEMERIS_TYPE": 0, "CLASSIFICATION_TYPE": "U", "NORAD_CAT_ID": 65616, "ELEMENT_SET_NO": 999, "REV_AT_EPOCH": 22, "BSTAR": 0.00012170727, "MEAN_MOTION_DOT": 6.404e-05, "MEAN_MOTION_DDOT": 0}, "tle": {"line1": "1 65616U 25208A   25350.08808596  .00006404  00000+0  12171-3 0  9998", "line2": "2 65616  51.6306 125.8981 0003173 255.6781 104.3856 15.49613604   229"}}, "geometry": {"type": "Point", "coordinates": [93.79672047463889, -30.370485444464016]}}, {"type": "Feature", "properties": {"norad_id": 65729, "name": "DRAGONFLY", "group": "stations", "lat": -47.00898274503878, "lon": 55.7831039123829, "alt_km": 349.25533050786635, "timestamp": "2025-12-16T23:36:34.944200+00:00", "meta": {"OBJECT_NAME": "DRAGONFLY", "OBJECT_ID": "1998-067XH", "EPOCH": "2025-12-16T08:39:23.844096", "MEAN_MOTION": 15.73131629, "ECCENTRICITY": 0.00070668, "INCLINATION": 51.6242, "RA_OF_ASC_NODE": 117.2037, "ARG_OF_PERICENTER": 301.2639, "MEAN_ANOMALY": 58.7667, "EPHEMERIS_TYPE": 0, "CLASSIFICATION_TYPE": "U", "NORAD_CAT_ID": 65729, "ELEMENT_SET_NO": 999, "REV_AT_EPOCH": 1373, "BSTAR": 0.0010798452, "MEAN_MOTION_DOT": 0.00153726, "MEAN_MOTION_DDOT": 0}, "tle": {"line1": "1 65729U 98067XH  25350.36069264  .00153726  00000+0  10798-2 0  9990", "line2": "2 65729  51.6242 117.2037 0007066 301.2639  58.7667 15.73131629 13736"}}, "geometry": {"type": "Point", "coordinates": [55.7831039123829, -47.00898274503878]}}, {"type": "Feature", "properties": {"norad_id": 65731, "name": "1998-067XK", "group": "stations", "lat": -27.322202037310237, "lon": -40.152059441474, "alt_km": 370.41444393651636, "timestamp": "2025-12-16T23:36:34.944211+00:00", "meta": {"OBJECT_NAME": "1998-067XK", "OBJECT_ID": "1998-067XK", "EPOCH": "2025-12-15T17:36:02.993472", "MEAN_MOTION": 15.66333624, "ECCENTRICITY": 0.00048129, "INCLINATION": 51.6281, "RA_OF_ASC_NODE": 122.0366, "ARG_OF_PERICENTER": 264.6574, "MEAN_ANOMALY": 95.3872, "EPHEMERIS_TYPE": 0, "CLASSIFICATION_TYPE": "U", "NORAD_CAT_ID": 65731, "ELEMENT_SET_NO": 999, "REV_AT_EPOCH": 1361, "BSTAR": 0.00074239237, "MEAN_MOTION_DOT": 0.00078692, "MEAN_MOTION_DDOT": 0}, "tle": {"line1": "1 65731U 98067XK  25349.73336798  .00078692  00000+0  74239-3 0  9990", "line2": "2 65731  51.6281 122.0366 0004812 264.6574  95.3872 15.66333624 13610"}}, "geometry": {"type": "Point", "coordinates": [-40.152059441474, -27.322202037310237]}}, {"type": "Feature", "properties": {"norad_id": 65732, "name": "RSP-03", "group": "stations", "lat": -39.581683056880586, "lon": -24.187341588433412, "alt_km": 361.24880603294514, "timestamp": "2025-12-16T23:36:34.944222+00:00", "meta": {"OBJECT_NAME": "RSP-03", "OBJECT_ID": "1998-067XL", "EPOCH": "2025-12-15T09:56:23.959680", "MEAN_MOTION": 15.69333488, "ECCENTRICITY": 0.00056309, "INCLINATION": 51.6255, "RA_OF_ASC_NODE": 122.8946, "ARG_OF_PERICENTER": 270.0098, "MEAN_ANOMALY": 90.0254, "EPHEMERIS_TYPE": 0, "CLASSIFICATION_TYPE": "U", "NORAD_CAT_ID": 65732, "ELEMENT_SET_NO": 999, "REV_AT_EPOCH": 1358, "BSTAR": 0.00085708712, "MEAN_MOTION_DOT": 0.00103156, "MEAN_MOTION_DDOT": 0}, "tle": {"line1": "1 65732U 98067XL  25349.41416620  .00103156  00000+0  85709-3 0  9997", "line2": "2 65732  51.6255 122.8946 0005630 270.0098  90.0254 15.69333488 13588"}}, "geometry": {"type": "Point", "coordinates": [-24.187341588433412, -39.581683056880586]}}, {"type": "Feature", "properties": {"norad_id": 65733, "name": "GHS-01", "group": "stations", "lat": -48.51115718127808, "lon": -3.0223160474524353, "alt_km": 341.5695317038644, "timestamp": "2025-12-16T23:36:34.944235+00:00", "meta": {"OBJECT_NAME": "GHS-01", "OBJECT_ID": "1998-067XM", "EPOCH": "2025-12-15T17:38:00.008448", "MEAN_MOTION": 15.76152522, "ECCENTRICITY": 0.00075996, "INCLINATION": 51.6274, "RA_OF_ASC_NODE": 119.7831, "ARG_OF_PERICENTER": 301.7085, "MEAN_ANOMALY": 58.3173, "EPHEMERIS_TYPE": 0, "CLASSIFICATION_TYPE": "U", "NORAD_CAT_ID": 65733, "ELEMENT_SET_NO": 999, "REV_AT_EPOCH": 1365, "BSTAR": 0.0011101643, "MEAN_MOTION_DOT": 0.00180872, "MEAN_MOTION_DDOT": 0}, "tle": {"line1": "1 65733U 98067XM  25349.73472232  .00180872  00000+0  11102-2 0  9999", "line2": "2 65733  51.6274 119.7831 0007599 301.7085  58.3173 15.76152522 13653"}}, "geometry": {"type": "Point", "coordinates": [-3.0223160474524353, -48.51115718127808]}}, {"type": "Feature", "properties": {"norad_id": 65941, "name": "YOTSUBA-KULOVER", "group": "stations", "lat": -42.123019849925164, "lon": -15.595569926061017, "alt_km": 391.333143383712, "timestamp": "2025-12-16T23:36:34.944245+00:00", "meta": {"OBJECT_NAME": "YOTSUBA-KULOVER", "OBJECT_ID": "1998-067XN", "EPOCH": "2025-12-16T08:45:11.376000", "MEAN_MOTION": 15.59949944, "ECCENTRICITY": 0.00014697, "INCLINATION": 51.6282, "RA_OF_ASC_NODE": 121.7508, "ARG_OF_PERICENTER": 292.0371, "MEAN_ANOMALY": 68.0466, "EPHEMERIS_TYPE": 0, "CLASSIFICATION_TYPE": "U", "NORAD_CAT_ID": 65941, "ELEMENT_SET_NO": 999, "REV_AT_EPOCH": 1042, "BSTAR": 0.00068478904, "MEAN_MOTION_DOT": 0.00056217, "MEAN_MOTION_DDOT": 0}, "tle": {"line1": "1 65941U 98067XN  25350.36471500  .00056217  00000+0  68479-3 0  9993", "line2": "2 65941  51.6282 121.7508 0001469 292.0371  68.0466 15.59949944 10425"}}, "geometry": {"type": "Point", "coordinates": [-15.595569926061017, -42.123019849925164]}}, {"type": "Feature", "properties": {"norad_id": 65942, "name": "BOTAN", "group": "stations", "lat": -50.96426019574424, "lon": 15.592676511174025, "alt_km": 379.51017758961007, "timestamp": "2025-12-16T23:36:34.944270+00:00", "meta": {"OBJECT_NAME": "BOTAN", "OBJECT_ID": "1998-067XP", "EPOCH": "2025-12-16T08:41:17.733120", "MEAN_MOTION": 15.63646784, "ECCENTRICITY": 0.00028531, "INCLINATION": 51.6278, "RA_OF_ASC_NODE": 120.983, "ARG_OF_PERICENTER": 270.5076, "MEAN_ANOMALY": 89.5591, "EPHEMERIS_TYPE": 0, "CLASSIFICATION_TYPE": "U", "NORAD_CAT_ID": 65942, "ELEMENT_SET_NO": 999, "REV_AT_EPOCH": 1043, "BSTAR": 0.00094318365, "MEAN_MOTION_DOT": 0.00090028, "MEAN_MOTION_DDOT": 0}, "tle": {"line1": "1 65942U 98067XP  25350.36201080  .00090028  00000+0  94318-3 0  9997", "line2": "2 65942  51.6278 120.9830 0002853 270.5076  89.5591 15.63646784 10430"}}, "geometry": {"type": "Point", "coordinates": [15.592676511174025, -50.96426019574424]}}, {"type": "Feature", "properties": {"norad_id": 65943, "name": "E-KAGAKU-1", "group": "stations", "lat": -41.81541897500274, "lon": -16.223132908379743, "alt_km": 390.88895788152604, "timestamp": "2025-12-16T23:36:34.944283+00:00", "meta": {"OBJECT_NAME": "E-KAGAKU-1", "OBJECT_ID": "1998-067XQ", "EPOCH": "2025-12-15T15:50:32.577792", "MEAN_MOTION": 15.59851021, "ECCENTRICITY": 0.00016366, "INCLINATION": 51.6292, "RA_OF_ASC_NODE": 125.299, "ARG_OF_PERICENTER": 221.4661, "MEAN_ANOMALY": 138.6208, "EPHEMERIS_TYPE": 0, "CLASSIFICATION_TYPE": "U", "NORAD_CAT_ID": 65943, "ELEMENT_SET_NO": 999, "REV_AT_EPOCH": 1031, "BSTAR": 0.0006409113, "MEAN_MOTION_DOT": 0.00052357, "MEAN_MOTION_DDOT": 0}, "tle": {"line1": "1 65943U 98067XQ  25349.66009928  .00052357  00000+0  64091-3 0  9994", "line2": "2 65943  51.6292 125.2990 0001636 221.4661 138.6208 15.59851021 10310"}}, "geometry": {"type": "Point", "coordinates": [-16.223132908379743, -41.81541897500274]}}]}